392P/LINEAR,e,4.9306,24.8365,71.9125,6.141207,0.0647625,0.68384573,104.6995,09/05.0/2024,2000,g 14.5,4.0
# From MPEC 2023-T65
393P/Spacewatch-Hill,e,16.7864,36.3954,329.2031,4.798194,0.0937751,0.11962328,166.0147,09/05.0/2024,2000,g 11.0,4.0
# From MPEC 2020-KB7
394P/PANSTARRS,e,8.5291,98.1198,54.4079,4.327916,0.1094677,0.36796784,190.5976,09/05.0/2024,2000,g 16.0,2.4
# From MPEC 2024-PC5
395P/Catalina-NEAT,e,3.5785,221.0230,100.2861,7.195725,0.0510613,0.41356542,47.3415,09/05.0/2024,2000,g 10.0,4.0
# From MPEC 2020-KB7
396P/,e,5.4405,136.6182,8.3053,6.799728,0.0555862,0.41659934,101.9915,09/05.0/2024,2000,g 12.0,4.0
# From MPEC 2022-OB6
397P/Lemmon,e,10.9236,8.2215,14.5717,3.831576,0.1314128,0.40490013,202.0859,09/05.0/2024,2000,g 12.0,4.0
# From MPEC 2021-L04
398P/Boattini,e,11.0242,320.1422,127.5195,3.125219,0.1783953,0.58366944,240.3127,09/05.0/2024,2000,g 15.5,4.0
# From MPEC 2023-XP6
399P/PANSTARRS,e,13.3199,207.1275,214.4132,3.793228,0.1334107,0.44742254,160.1723,09/05.0/2024,2000,g 14.0,4.0
# From MPEC 2022-ED3
400P/PANSTARRS,e,10.9284,176.3945,238.8830,3.561965,0.1466120,0.40970337,190.8647,09/05.0/2024,2000,g 15.5,2.8
# From MPEC 2022-K19
401P/McNaught,e,12.8010,359.9159,309.4021,5.777668,0.0709701,0.57857719,123.2220,09/05.0/2024,2000,g 12.5,4.0
# From MPEC 2024-LE0
402P/LINEAR,e,30.8309,123.0611,326.8991,7.036052,0.0528093,0.44000838,52.5118,09/05.0/2024,2000,g  9.0,4.0
# From MPEC 2021-J28
403P/Catalina,e,12.3299,277.5698,163.9221,5.431144,0.0778694,0.50430398,112.7933,09/05.0/2024,2000,g 12.0,4.0
# From MPEC 2024-MB8
404P/Bressi,e,9.8039,260.0409,169.2529,4.723692,0.0960023,0.12512894,29.4638,09/05.0/2024,2000,g 10.0,4.0
# From MPEC 2021-L04
405P/Lemmon,e,9.3769,112.1908,3.2975,3.604499,0.1440246,0.68998412,194.4288,09/05.0/2024,2000,g 17.5,4.0
# From MPEC 2021-F20
406P/Gibbs,e,1.2106,352.4069,11.5520,3.578684,0.1455858,0.54137796,211.1319,09/05.0/2024,2000,g 17.0,4.0
# From MPEC 2022-YN2
407P/PANSTARRS-Fuls,e,4.8765,80.2401,93.3779,3.487632,0.1513241,0.37650804,255.7600,09/05.0/2024,2000,g 14.0,4.0
# From MPEC 2024-N80
408P/Novichonok-Gerke,e,19.3553,189.4466,226.6189,4.744166,0.0953815,0.26862756,66.7798,09/05.0/2024,2000,g 11.0,4.0
# From MPEC 2022-ED3
409P/LONEOS-Hill,e,17.1389,143.6447,15.0494,6.033521,0.0665040,0.70996695,87.5041,09/05.0/2024,2000,g 14.0,4.0
# From MPEC 2022-M21
410P/NEAT-LINEAR,e,9.3885,139.9575,313.1929,6.649847,0.0574760,0.51170627,67.1654,09/05.0/2024,2000,g 12.5,4.0
# From MPEC 2021-J28
411P/Christensen,e,12.3897,77.6537,46.5514,5.811307,0.0703547,0.58154137,92.7942,09/05.0/2024,2000,g 13.5,4.0
# From MPEC 2021-F20
412P/WISE,e,8.9308,0.8456,155.8860,3.110717,0.1796442,0.47897660,246.3258,09/05.0/2024,2000,g 17.0,4.0
# From MPEC 2022-OB6
413P/Larson,e,15.9693,39.2339,186.5389,3.733919,0.1366019,0.41877574,156.4825,09/05.0/2024,2000,g 14.0,4.0
# From MPEC 2024-JU4
414P/STEREO,e,23.4076,257.8180,210.6942,2.792619,0.2111964,0.81218669,278.4050,09/05.0/2024,2000,g 19.0,4.0
# From MPEC 2022-J42
415P/Tenagra,e,31.8010,160.2644,345.8701,4.109206,0.1183225,0.19522869,153.7462,09/05.0/2024,2000,g 12.0,4.0
# From MPEC 2021-L04
416P/Scotti,e,3.3623,355.7533,134.4186,4.007319,0.1228636,0.45515515,159.3546,09/05.0/2024,2000,g 15.5,4.0
# From MPEC 2021-W31
417P/NEOWISE,e,8.9054,117.7216,121.6342,3.305918,0.1639706,0.57268421,201.3522,09/05.0/2024,2000,g 16.5,4.0
# From MPEC 2022-TA0
418P/LINEAR,e,5.7804,277.6365,307.3624,5.092822,0.0857564,0.66369946,90.4247,09/05.0/2024,2000,g 13.0,4.0
# From MPEC 2023-UR6
419P/PANSTARRS,e,2.7995,40.4192,187.8983,3.529661,0.1486294,0.27523085,155.2173,09/05.0/2024,2000,g 12.5,4.0
# From MPEC 2024-L77
420P/Hill,e,14.4862,173.7213,156.4838,5.495281,0.0765102,0.49528674,64.2319,09/05.0/2024,2000,g 11.5,4.0
# From MPEC 2021-W31
421P/McNaught,e,10.0758,55.3319,259.8899,5.075976,0.0861836,0.67454764,113.7124,09/05.0/2024,2000,g 14.0,4.0
# From MPEC 2024-N80
422P/Christensen,e,39.5820,36.0205,304.8063,6.278860,0.0626445,0.50612038,60.6044,09/05.0/2024,2000,g 11.0,4.0
# From MPEC 2023-FK0
423P/Lemmon,e,8.3449,33.3001,80.6511,6.178292,0.0641802,0.12260928,69.1725,09/05.0/2024,2000,g  8.0,4.0
# From MPEC 2022-CN4
424P/LaSagra,e,8.6828,51.1962,312.5595,4.420007,0.1060644,0.69076542,110.2691,09/05.0/2024,2000,g 17.0,4.0
# From MPEC 2024-C04
425P/Kowalski,e,16.4191,210.0785,200.9382,6.348104,0.0616223,0.54397488,66.5473,09/05.0/2024,2000,g 12.0,4.0
# From MPEC 2024-N80
426P/PANSTARRS,e,17.7834,280.3954,118.4789,3.186665,0.1732605,0.16123507,62.4106,09/05.0/2024,2000,g 13.5,4.0
# From MPEC 2023-J29
428P/Gibbs,e,8.5046,299.3220,36.9062,3.487608,0.1513257,0.51851717,183.1233,09/05.0/2024,2000,g 15.0,4.0
# From MPEC 2024-EF7
429P/LINEAR-Hill,e,7.5155,322.0390,75.6912,3.554939,0.1470469,0.49117830,143.6177,09/05.0/2024,2000,g 15.5,4.0
# From MPEC 2022-L66
430P/Scotti,e,4.4752,54.6629,94.4262,3.103908,0.1802357,0.49997677,181.6179,09/05.0/2024,2000,g 16.5,4.0
# From MPEC 2024-EF7
431P/Scotti,e,22.3878,202.8432,199.9764,3.476237,0.1520687,0.47762149,142.0949,09/05.0/2024,2000,g 14.0,4.0
# From MPEC 2021-U31
432P/PANSTARRS,e,10.0683,239.1288,105.3180,3.037442,0.1861839,0.24113352,205.2205,09/05.0/2024,2000,g 17.0,4.0
# From MPEC 2024-D33
434P/Tenagra,e,6.3360,288.9267,128.3636,4.134407,0.1172423,0.27461394,122.3972,09/05.0/2024,2000,g 13.0,4.0
# From MPEC 2021-W31
435P/PANSTARRS,e,18.8744,98.5298,244.2417,3.020794,0.1877251,0.31783597,213.2841,09/05.0/2024,2000,g 17.0,4.0
# From MPEC 2022-X67
436P/Garradd,e,20.2000,87.1613,282.7332,5.935798,0.0681531,0.66943862,68.2705,09/05.0/2024,2000,g 14.5,4.0
# From MPEC 2023-B57
437P/Lemmon-PANSTARRS,e,3.6890,245.8407,206.9537,4.566723,0.1009943,0.25508909,75.4723,09/05.0/2024,2000,g 13.0,4.0
# From MPEC 2021-W47
438P/Christensen,e,8.2808,260.1116,59.0279,3.851336,0.1304028,0.41439775,210.6695,09/05.0/2024,2000,g 14.5,4.0
# From MPEC 2022-C56
439P/LINEAR,e,7.1134,56.4351,342.0930,3.491177,0.1510937,0.46939178,167.0433,09/05.0/2024,2000,g 13.5,4.0
# From MPEC 2024-N80
440P/Kobayashi,e,12.3448,328.8298,183.2872,8.577000,0.0392375,0.76063037,34.9185,09/05.0/2024,2000,g 15.5,4.0
# From MPEC 2022-X67
441P/PANSTARRS,e,2.5744,143.5976,178.8645,4.133343,0.1172875,0.19491825,316.6787,09/05.0/2024,2000,g 13.5,4.0
# From MPEC 2024-N80
442P/McNaught,e,6.0575,31.9905,310.7067,4.960373,0.0892139,0.53262688,66.8048,09/05.0/2024,2000,g 13.5,4.0
# From MPEC 2023-SQ0
443P/PANSTARRS-Christensen,e,19.8878,108.9392,145.1076,4.125245,0.1176331,0.28320574,81.8814,09/05.0/2024,2000,g 13.5,4.0
# From MPEC 2023-VM5
444P/WISE-PANSTARRS,e,22.5599,88.3850,172.4382,3.452216,0.1536587,0.56698551,121.1979,09/05.0/2024,2000,g 17.0,4.0
# From MPEC 2024-BE0
445P/Lemmon-PANSTARRS,e,1.0886,126.5907,213.3218,4.049197,0.1209625,0.41397339,90.7669,09/05.0/2024,2000,g 15.0,4.0
# From MPEC 2024-NE4
446P/McNaught,e,16.6176,336.3696,344.6602,4.563511,0.1011010,0.64670828,83.8956,09/05.0/2024,2000,g 16.5,4.0
# From MPEC 2022-YB4
447P/Sheppard-Tholen,e,7.4392,302.6362,97.6737,5.630181,0.0737769,0.17793829,55.2389,09/05.0/2024,2000,g 12.0,4.0
# From MPEC 2024-PC5
448P/PANSTARRS,e,12.1485,161.7578,218.7761,3.635410,0.1421916,0.41851888,103.7347,09/05.0/2024,2000,g 16.0,4.0
# From MPEC 2024-DC6
449P/Leonard,e,15.4718,242.5240,176.7412,3.600031,0.1442928,0.47985264,199.1451,09/05.0/2024,2000,g 16.0,4.0
# From MPEC 2024-D33
450P/LONEOS,e,10.5761,124.6585,21.8614,7.966607,0.0438323,0.31305743,321.9892,09/05.0/2024,2000,g  6.5,4.0
# From MPEC 2023-HD1
451P/Christensen,e,26.4808,300.8831,186.7463,6.346329,0.0616482,0.55904017,39.9031,09/05.0/2024,2000,g 15.5,4.0
# From MPEC 2024-NE4
452P/Sheppard-Jewitt,e,6.4215,123.6772,37.0576,7.305756,0.0499122,0.42814374,24.8739,09/05.0/2024,2000,g  9.0,4.0
# From MPEC 2023-RF3
453P/WISE-Lemmon,e,27.0663,42.8962,70.8650,5.464538,0.0771567,0.58300407,42.5756,09/05.0/2024,2000,g 14.0,4.0
# From MPEC 2023-CD7
454P/PANSTARRS,e,19.8125,54.5828,20.1313,4.209675,0.1141120,0.36158138,88.0371,09/05.0/2024,2000,g 14.0,4.0
# From MPEC 2022-Y14
455P/PANSTARRS,e,14.1371,146.1843,237.5144,3.152737,0.1760648,0.30472936,98.2182,09/05.0/2024,2000,g 17.0,4.0
# From MPEC 2023-N01
456P/PANSTARRS,e,16.9705,243.1579,233.1545,3.173614,0.1743303,0.11722297,321.1964,09/05.0/2024,2000,g 13.5,4.0
# From MPEC 2024-P23
457P/Lemmon-PANSTARRS,e,5.2252,175.9674,104.3883,2.645853,0.2290105,0.11857273,3.5877,09/05.0/2024,2000,g 15.5,4.0
# From MPEC 2023-HD1
458P/Jahn,e,13.6246,1.5799,104.8676,3.858353,0.1300472,0.31720456,87.8486,09/05.0/2024,2000,g 17.3,4.0
# From MPEC 2024-N80
459P/Catalina,e,7.1736,256.9882,205.2088,3.240065,0.1689949,0.57778471,94.8915,09/05.0/2024,2000,g 15.5,4.0
# From MPEC 2023-G14
460P/PANSTARRS,e,18.8970,180.5151,351.9429,3.027135,0.1871356,0.66405861,220.2400,09/05.0/2024,2000,g 21.0,4.0
# From MPEC 2024-GJ3
461P/WISE,e,18.4062,194.3798,174.8337,3.143730,0.1768220,0.56990049,188.5290,09/05.0/2024,2000,g 18.5,4.0
# From MPEC 2024-BE0
462P/LONEOS-PANSTARRS,e,7.0325,322.7360,4.3239,4.871741,0.0916596,0.57819473,70.1496,09/05.0/2024,2000,g 17.0,4.0
# From MPEC 2024-GJ3
463P/NEOWISE,e,29.2914,283.2136,216.3468,2.974309,0.1921432,0.82570793,100.9368,09/05.0/2024,2000,g 18.0,4.0
# From MPEC 2024-Q20
464P/PANSTARRS,e,21.6697,309.5774,267.6033,4.685578,0.0971761,0.28046297,53.9727,09/05.0/2024,2000,g 10.5,4.0
# From MPEC 2024-NE4
465P/Hill,e,25.8655,217.9931,141.0562,6.019959,0.0667289,0.61356753,32.3386,09/05.0/2024,2000,g 12.5,4.0
# From MPEC 2024-JU4
466P/PANSTARRS,e,12.2710,119.5444,197.1299,4.055203,0.1206938,0.46914620,59.0659,09/05.0/2024,2000,g 14.0,4.0
# From MPEC 2023-T65
467P/LINEAR-Grauer,e,2.4790,43.2662,267.8041,5.829557,0.0700246,0.05501462,45.0930,09/05.0/2024,2000,g  9.0,4.0
# From MPEC 2024-O39
468P/SidingSpring,e,50.4475,356.1237,322.5839,7.122191,0.0518542,0.44537921,14.9740,09/05.0/2024,2000,g 11.5,4.0
# From MPEC 2024-P23
469P/PANSTARRS,e,20.1738,178.9661,43.5112,4.340865,0.1089782,0.30771788,309.9210,09/05.0/2024,2000,g 13.5,4.0
# From MPEC 2024-R10
